{"type": "FeatureCollection", "features": [ {"type": "Feature", "properties": {"norad_id": 34014, "name": "COSMOS 2251 DEB", "group": "cosmos-2251-debris", "lat": -28.04584979261856, "lon": 109.10633176442393, "alt_km": 678.8454044190803, "timestamp": "2025-12-12T22:42:12.939070+00:00", "meta": {"OBJECT_NAME": "COSMOS 2251 DEB", "OBJECT_ID": "1993-036GZ", "EPOCH": "2025-12-11T23:16:17.632128", "MEAN_MOTION": 14.73123659, "ECCENTRICITY": 0.0036963, "INCLINATION": 74.017, "RA_OF_ASC_NODE": 282.2272, "ARG_OF_PERICENTER": 62.0466, "MEAN_ANOMALY": 11.2871, "EPHEMERIS_TYPE": 0, "CLASSIFICATION_TYPE": "U", "NORAD_CAT_ID": 34014, "ELEMENT_SET_NO": 999, "REV_AT_EPOCH": 89292, "BSTAR": 0.0015254, "MEAN_MOTION_DOT": 9.915e-05, "MEAN_MOTION_DDOT": 0}, "tle": {"line1": "1 34014U 93036GZ  25345.96964852  .00009915  00000+0  15254-2 0  9993", "line2": "2 34014  74.0170 282.2272 0036963  62.0466  11.2871 14.73123659892920"}}, "geometry": {"type": "Point", "coordinates": [109.10633176442393, -28.04584979261856]}}, {"type": "Feature", "properties": {"norad_id": 34015, "name": "COSMOS 2251 DEB", "group": "cosmos-2251-debris", "lat": -42.09167089187124, "lon": 144.0328118276569, "alt_km": 691.1836577691502, "timestamp": "2025-12-12T22:42:12.939079+00:00", "meta": {"OBJECT_NAME": "COSMOS 2251 DEB", "OBJECT_ID": "1993-036HA", "EPOCH": "2025-12-11T22:46:01.840224", "MEAN_MOTION": 14.60232788, "ECCENTRICITY": 0.0021027, "INCLINATION": 74.0236, "RA_OF_ASC_NODE": 160.9354, "ARG_OF_PERICENTER": 257.9067, "MEAN_ANOMALY": 216.9697, "EPHEMERIS_TYPE": 0, "CLASSIFICATION_TYPE": "U", "NORAD_CAT_ID": 34015, "ELEMENT_SET_NO": 999, "REV_AT_EPOCH": 88519, "BSTAR": 0.0021864, "MEAN_MOTION_DOT": 0.00010565, "MEAN_MOTION_DDOT": 0}, "tle": {"line1": "1 34015U 93036HA  25345.94863241  .00010565  00000+0  21864-2 0  9999", "line2": "2 34015  74.0236 160.9354 0021027 257.9067 216.9697 14.60232788885195"}}, "geometry": {"type": "Point", "coordinates": [144.0328118276569, -42.09167089187124]}}, {"type": "Feature", "properties": {"norad_id": 34018, "name": "COSMOS 2251 DEB", "group": "cosmos-2251-debris", "lat": 34.50889732942856, "lon": 103.21656378573412, "alt_km": 956.9638119150568, "timestamp": "2025-12-12T22:42:12.939090+00:00", "meta": {"OBJECT_NAME": "COSMOS 2251 DEB", "OBJECT_ID": "1993-036HD", "EPOCH": "2025-12-11T17:40:54.069888", "MEAN_MOTION": 13.81069983, "ECCENTRICITY": 0.02637883, "INCLINATION": 73.8777, "RA_OF_ASC_NODE": 93.7953, "ARG_OF_PERICENTER": 129.8712, "MEAN_ANOMALY": 19.4498, "EPHEMERIS_TYPE": 0, "CLASSIFICATION_TYPE": "U", "NORAD_CAT_ID": 34018, "ELEMENT_SET_NO": 999, "REV_AT_EPOCH": 84643, "BSTAR": 0.00079552946, "MEAN_MOTION_DOT": 1.073e-05, "MEAN_MOTION_DDOT": 0}, "tle": {"line1": "1 34018U 93036HD  25345.73673692  .00001073  00000+0  79553-3 0  9991", "line2": "2 34018  73.8777  93.7953 0263788 129.8712  19.4498 13.81069983846435"}}, "geometry": {"type": "Point", "coordinates": [103.21656378573412, 34.50889732942856]}}, {"type": "Feature", "properties": {"norad_id": 34019, "name": "COSMOS 2251 DEB", "group": "cosmos-2251-debris", "lat": -22.38540952067438, "lon": -122.83172715048335, "alt_km": 744.0212960615645, "timestamp": "2025-12-12T22:42:12.939100+00:00", "meta": {"OBJECT_NAME": "COSMOS 2251 DEB", "OBJECT_ID": "1993-036HE", "EPOCH": "2025-12-12T06:59:09.794976", "MEAN_MOTION": 14.33935229, "ECCENTRICITY": 0.00626918, "INCLINATION": 73.9547, "RA_OF_ASC_NODE": 51.5647, "ARG_OF_PERICENTER": 232.87, "MEAN_ANOMALY": 191.358, "EPHEMERIS_TYPE": 0, "CLASSIFICATION_TYPE": "U", "NORAD_CAT_ID": 34019, "ELEMENT_SET_NO": 999, "REV_AT_EPOCH": 87514, "BSTAR": 0.0014032569, "MEAN_MOTION_DOT": 3.975e-05, "MEAN_MOTION_DDOT": 0}, "tle": {"line1": "1 34019U 93036HE  25346.29108559  .00003975  00000+0  14033-2 0  9993", "line2": "2 34019  73.9547  51.5647 0062691 232.8700 191.3580 14.33935229875141"}}, "geometry": {"type": "Point", "coordinates": [-122.83172715048335, -22.38540952067438]}}, {"type": "Feature", "properties": {"norad_id": 34021, "name": "COSMOS 2251 DEB", "group": "cosmos-2251-debris", "lat": -43.10862293455325, "lon": 113.89920480089181, "alt_km": 720.9569361786553, "timestamp": "2025-12-12T22:42:12.939110+00:00", "meta": {"OBJECT_NAME": "COSMOS 2251 DEB", "OBJECT_ID": "1993-036HG", "EPOCH": "2025-12-11T21:07:41.922912", "MEAN_MOTION": 14.49943038, "ECCENTRICITY": 0.0020922, "INCLINATION": 74.0359, "RA_OF_ASC_NODE": 131.4418, "ARG_OF_PERICENTER": 275.5829, "MEAN_ANOMALY": 238.8911, "EPHEMERIS_TYPE": 0, "CLASSIFICATION_TYPE": "U", "NORAD_CAT_ID": 34021, "ELEMENT_SET_NO": 999, "REV_AT_EPOCH": 88617, "BSTAR": 0.00081664, "MEAN_MOTION_DOT": 3.141e-05, "MEAN_MOTION_DDOT": 0}, "tle": {"line1": "1 34021U 93036HG  25345.88034633  .00003141  00000+0  81664-3 0  9991", "line2": "2 34021  74.0359 131.4418 0020922 275.5829 238.8911 14.49943038886172"}}, "geometry": {"type": "Point", "coordinates": [113.89920480089181, -43.10862293455325]}}, {"type": "Feature", "properties": {"norad_id": 34022, "name": "COSMOS 2251 DEB", "group": "cosmos-2251-debris", "lat": 53.78553194755623, "lon": 67.4336621123998, "alt_km": 770.1791739968667, "timestamp": "2025-12-12T22:42:12.939120+00:00", "meta": {"OBJECT_NAME": "COSMOS 2251 DEB", "OBJECT_ID": "1993-036HH", "EPOCH": "2025-12-12T06:09:16.871328", "MEAN_MOTION": 14.38962561, "ECCENTRICITY": 0.00227071, "INCLINATION": 74.0542, "RA_OF_ASC_NODE": 271.6853, "ARG_OF_PERICENTER": 336.7347, "MEAN_ANOMALY": 175.4704, "EPHEMERIS_TYPE": 0, "CLASSIFICATION_TYPE": "U", "NORAD_CAT_ID": 34022, "ELEMENT_SET_NO": 999, "REV_AT_EPOCH": 88188, "BSTAR": 0.00039016925, "MEAN_MOTION_DOT": 1.181e-05, "MEAN_MOTION_DDOT": 0}, "tle": {"line1": "1 34022U 93036HH  25346.25644527  .00001181  00000+0  39017-3 0  9990", "line2": "2 34022  74.0542 271.6853 0022707 336.7347 175.4704 14.38962561881884"}}, "geometry": {"type": "Point", "coordinates": [67.4336621123998, 53.78553194755623]}}, {"type": "Feature", "properties": {"norad_id": 34023, "name": "COSMOS 2251 DEB", "group": "cosmos-2251-debris", "lat": 41.38115499992426, "lon": -94.01972620526833, "alt_km": 745.6842008088961, "timestamp": "2025-12-12T22:42:12.939131+00:00", "meta": {"OBJECT_NAME": "COSMOS 2251 DEB", "OBJECT_ID": "1993-036HJ", "EPOCH": "2025-12-12T04:52:24.757248", "MEAN_MOTION": 14.40559694, "ECCENTRICITY": 0.00184591, "INCLINATION": 74.025, "RA_OF_ASC_NODE": 252.7362, "ARG_OF_PERICENTER": 348.5482, "MEAN_ANOMALY": 163.5618, "EPHEMERIS_TYPE": 0, "CLASSIFICATION_TYPE": "U", "NORAD_CAT_ID": 34023, "ELEMENT_SET_NO": 999, "REV_AT_EPOCH": 88206, "BSTAR": 0.00053261999, "MEAN_MOTION_DOT": 1.674e-05, "MEAN_MOTION_DDOT": 0}, "tle": {"line1": "1 34023U 93036HJ  25346.20306432  .00001674  00000+0  53262-3 0  9991", "line2": "2 34023  74.0250 252.7362 0018459 348.5482 163.5618 14.40559694882061"}}, "geometry": {"type": "Point", "coordinates": [-94.01972620526833, 41.38115499992426]}}, {"type": "Feature", "properties": {"norad_id": 34024, "name": "COSMOS 2251 DEB", "group": "cosmos-2251-debris", "lat": 46.59235468145076, "lon": -26.78175246702322, "alt_km": 758.2759479851347, "timestamp": "2025-12-12T22:42:12.939141+00:00", "meta": {"OBJECT_NAME": "COSMOS 2251 DEB", "OBJECT_ID": "1993-036HK", "EPOCH": "2025-12-12T06:15:33.538176", "MEAN_MOTION": 14.35395664, "ECCENTRICITY": 0.0021008, "INCLINATION": 74.0465, "RA_OF_ASC_NODE": 316.8711, "ARG_OF_PERICENTER": 7.6906, "MEAN_ANOMALY": 102.1111, "EPHEMERIS_TYPE": 0, "CLASSIFICATION_TYPE": "U", "NORAD_CAT_ID": 34024, "ELEMENT_SET_NO": 999, "REV_AT_EPOCH": 88017, "BSTAR": 0.0003204286, "MEAN_MOTION_DOT": 8.96e-06, "MEAN_MOTION_DDOT": 0}, "tle": {"line1": "1 34024U 93036HK  25346.26080484  .00000896  00000+0  32043-3 0  9993", "line2": "2 34024  74.0465 316.8711 0021008   7.6906 102.1111 14.35395664880174"}}, "geometry": {"type": "Point", "coordinates": [-26.78175246702322, 46.59235468145076]}}, {"type": "Feature", "properties": {"norad_id": 34026, "name": "COSMOS 2251 DEB", "group": "cosmos-2251-debris", "lat": -61.35199485994346, "lon": -170.82999329025972, "alt_km": 818.4748721589467, "timestamp": "2025-12-12T22:42:12.939151+00:00", "meta": {"OBJECT_NAME": "COSMOS 2251 DEB", "OBJECT_ID": "1993-036HM", "EPOCH": "2025-12-12T00:42:27.527328", "MEAN_MOTION": 13.65307375, "ECCENTRICITY": 0.0350653, "INCLINATION": 73.767, "RA_OF_ASC_NODE": 338.4667, "ARG_OF_PERICENTER": 208.5868, "MEAN_ANOMALY": 211.9292, "EPHEMERIS_TYPE": 0, "CLASSIFICATION_TYPE": "U", "NORAD_CAT_ID": 34026, "ELEMENT_SET_NO": 999, "REV_AT_EPOCH": 83522, "BSTAR": 0.0010532, "MEAN_MOTION_DOT": 1.28e-05, "MEAN_MOTION_DDOT": 0}, "tle": {"line1": "1 34026U 93036HM  25346.02948527  .00001280  00000+0  10532-2 0  9996", "line2": "2 34026  73.7670 338.4667 0350653 208.5868 211.9292 13.65307375835229"}}, "geometry": {"type": "Point", "coordinates": [-170.82999329025972, -61.35199485994346]}}, {"type": "Feature", "properties": {"norad_id": 34028, "name": "COSMOS 2251 DEB", "group": "cosmos-2251-debris", "lat": -49.69258358584105, "lon": -173.13807564492095, "alt_km": 1293.3683234087684, "timestamp": "2025-12-12T22:42:12.939163+00:00", "meta": {"OBJECT_NAME": "COSMOS 2251 DEB", "OBJECT_ID": "1993-036HP", "EPOCH": "2025-12-12T07:11:42.384768", "MEAN_MOTION": 13.20622261, "ECCENTRICITY": 0.054371, "INCLINATION": 73.8832, "RA_OF_ASC_NODE": 347.9248, "ARG_OF_PERICENTER": 125.8465, "MEAN_ANOMALY": 269.59, "EPHEMERIS_TYPE": 0, "CLASSIFICATION_TYPE": "U", "NORAD_CAT_ID": 34028, "ELEMENT_SET_NO": 999, "REV_AT_EPOCH": 81002, "BSTAR": 0.00049861522, "MEAN_MOTION_DOT": 4.24e-06, "MEAN_MOTION_DDOT": 0}, "tle": {"line1": "1 34028U 93036HP  25346.29979612  .00000424  00000+0  49862-3 0  9994", "line2": "2 34028  73.8832 347.9248 0543710 125.8465 269.5900 13.20622261810025"}}, "geometry": {"type": "Point", "coordinates": [-173.13807564492095, -49.69258358584105]}}]}